[
  {
    "OBJECT_NAME": "RASSVET-3 15",
    "OBJECT_ID": "2026-061Q",
    "EPOCH": "2026-04-21T22:14:21.448032",
    "MEAN_MOTION": 15.87021766,
    "ECCENTRICITY": 0.00149313,
    "INCLINATION": 82.297,
    "RA_OF_ASC_NODE": 75.5918,
    "ARG_OF_PERICENTER": 321.2616,
    "MEAN_ANOMALY": 38.7583,
    "EPHEMERIS_TYPE": 0,
    "CLASSIFICATION_TYPE": "U",
    "NORAD_CAT_ID": 68374,
    "ELEMENT_SET_NO": 999,
    "REV_AT_EPOCH": 464,
    "BSTAR": 0.0003023064,
    "MEAN_MOTION_DOT": 0.00078601,
    "MEAN_MOTION_DDOT": 9.77725e-07
  },
  {
    "OBJECT_NAME": "RASSVET-3 16",
    "OBJECT_ID": "2026-061R",
    "EPOCH": "2026-04-21T20:35:20.625504",
    "MEAN_MOTION": 15.8165255,
    "ECCENTRICITY": 0.00155558,
    "INCLINATION": 82.2967,
    "RA_OF_ASC_NODE": 75.8157,
    "ARG_OF_PERICENTER": 332.8501,
    "MEAN_ANOMALY": 27.1951,
    "EPHEMERIS_TYPE": 0,
    "CLASSIFICATION_TYPE": "U",
    "NORAD_CAT_ID": 68375,
    "ELEMENT_SET_NO": 999,
    "REV_AT_EPOCH": 462,
    "BSTAR": 0.00032116886,
    "MEAN_MOTION_DOT": 0.00064985,
    "MEAN_MOTION_DDOT": 0
  },
  {
    "OBJECT_NAME": "SUPERVIEW NEO-2 OBJECT A",
    "OBJECT_ID": "2026-062A",
    "EPOCH": "2026-04-21T09:26:07.037664",
    "MEAN_MOTION": 15.19714263,
    "ECCENTRICITY": 0.0002631,
    "INCLINATION": 97.4408,
    "RA_OF_ASC_NODE": 119.5053,
    "ARG_OF_PERICENTER": 43.1102,
    "MEAN_ANOMALY": 317.0338,
    "EPHEMERIS_TYPE": 0,
    "CLASSIFICATION_TYPE": "U",
    "NORAD_CAT_ID": 68377,
    "ELEMENT_SET_NO": 999,
    "REV_AT_EPOCH": 402,
    "BSTAR": 9.8274414e-05,
    "MEAN_MOTION_DOT": 2.031e-05,
    "MEAN_MOTION_DDOT": 0
  },
  {
    "OBJECT_NAME": "SUPERVIEW NEO-2 OBJECT B",
    "OBJECT_ID": "2026-062B",
    "EPOCH": "2026-04-20T23:57:13.135680",
    "MEAN_MOTION": 15.19724745,
    "ECCENTRICITY": 0.00016204,
    "INCLINATION": 97.4395,
    "RA_OF_ASC_NODE": 119.1221,
    "ARG_OF_PERICENTER": 87.4083,
    "MEAN_ANOMALY": 272.7337,
    "EPHEMERIS_TYPE": 0,
    "CLASSIFICATION_TYPE": "U",
    "NORAD_CAT_ID": 68378,
    "ELEMENT_SET_NO": 999,
    "REV_AT_EPOCH": 396,
    "BSTAR": 0.00010594949,
    "MEAN_MOTION_DOT": 2.195e-05,
    "MEAN_MOTION_DDOT": 0
  },
  {
    "OBJECT_NAME": "CZ-2D R/B",
    "OBJECT_ID": "2026-062C",
    "EPOCH": "2026-04-21T23:37:02.021952",
    "MEAN_MOTION": 15.31502958,
    "ECCENTRICITY": 0.00502466,
    "INCLINATION": 97.4976,
    "RA_OF_ASC_NODE": 120.5642,
    "ARG_OF_PERICENTER": 326.1187,
    "MEAN_ANOMALY": 33.6847,
    "EPHEMERIS_TYPE": 0,
    "CLASSIFICATION_TYPE": "U",
    "NORAD_CAT_ID": 68379,
    "ELEMENT_SET_NO": 999,
    "REV_AT_EPOCH": 414,
    "BSTAR": 0.0002495237,
    "MEAN_MOTION_DOT": 7.81e-05,
    "MEAN_MOTION_DDOT": 0
  },
  {
    "OBJECT_NAME": "STARLINK-36296",
    "OBJECT_ID": "2026-063A",
    "EPOCH": "2026-04-20T13:31:48.938304",
    "MEAN_MOTION": 15.75241029,
    "ECCENTRICITY": 0.00010781,
    "INCLINATION": 97.2865,
    "RA_OF_ASC_NODE": 252.573,
    "ARG_OF_PERICENTER": 95.0668,
    "MEAN_ANOMALY": 265.0721,
    "EPHEMERIS_TYPE": 0,
    "CLASSIFICATION_TYPE": "U",
    "NORAD_CAT_ID": 68380,
    "ELEMENT_SET_NO": 999,
    "REV_AT_EPOCH": 424,
    "BSTAR": 0.0010650924,
    "MEAN_MOTION_DOT": 0.00162144,
    "MEAN_MOTION_DDOT": 0
  },
  {
    "OBJECT_NAME": "STARLINK-37111",
    "OBJECT_ID": "2026-063B",
    "EPOCH": "2026-04-20T09:02:27.071808",
    "MEAN_MOTION": 15.75202088,
    "ECCENTRICITY": 2.638e-05,
    "INCLINATION": 97.2862,
    "RA_OF_ASC_NODE": 252.21,
    "ARG_OF_PERICENTER": 79.9755,
    "MEAN_ANOMALY": 280.154,
    "EPHEMERIS_TYPE": 0,
    "CLASSIFICATION_TYPE": "U",
    "NORAD_CAT_ID": 68381,
    "ELEMENT_SET_NO": 999,
    "REV_AT_EPOCH": 420,
    "BSTAR": 0.00089157251,
    "MEAN_MOTION_DOT": 0.00135047,
    "MEAN_MOTION_DDOT": 0
  },
  {
    "OBJECT_NAME": "STARLINK-36946",
    "OBJECT_ID": "2026-063C",
    "EPOCH": "2026-04-20T13:11:51.182016",
    "MEAN_MOTION": 15.8089643,
    "ECCENTRICITY": 5.146e-05,
    "INCLINATION": 97.2846,
    "RA_OF_ASC_NODE": 252.4336,
    "ARG_OF_PERICENTER": 47.9158,
    "MEAN_ANOMALY": 312.2154,
    "EPHEMERIS_TYPE": 0,
    "CLASSIFICATION_TYPE": "U",
    "NORAD_CAT_ID": 68382,
    "ELEMENT_SET_NO": 999,
    "REV_AT_EPOCH": 423,
    "BSTAR": 0.0012846243,
    "MEAN_MOTION_DOT": 0.00254167,
    "MEAN_MOTION_DDOT": 0
  },
  {
    "OBJECT_NAME": "STARLINK-37121",
    "OBJECT_ID": "2026-063D",
    "EPOCH": "2026-04-20T13:42:58.806144",
    "MEAN_MOTION": 15.7519847,
    "ECCENTRICITY": 0.0001401,
    "INCLINATION": 97.2871,
    "RA_OF_ASC_NODE": 252.404,
    "ARG_OF_PERICENTER": 61.4389,
    "MEAN_ANOMALY": 298.7017,
    "EPHEMERIS_TYPE": 0,
    "CLASSIFICATION_TYPE": "U",
    "NORAD_CAT_ID": 68383,
    "ELEMENT_SET_NO": 999,
    "REV_AT_EPOCH": 423,
    "BSTAR": 0.00055769041,
    "MEAN_MOTION_DOT": 0.00083906,
    "MEAN_MOTION_DDOT": 0
  },
  {
    "OBJECT_NAME": "STARLINK-37137",
    "OBJECT_ID": "2026-063E",
    "EPOCH": "2026-04-20T14:11:57.382368",
    "MEAN_MOTION": 15.75260532,
    "ECCENTRICITY": 0.00024393,
    "INCLINATION": 97.2853,
    "RA_OF_ASC_NODE": 252.3762,
    "ARG_OF_PERICENTER": 11.3253,
    "MEAN_ANOMALY": 348.8067,
    "EPHEMERIS_TYPE": 0,
    "CLASSIFICATION_TYPE": "U",
    "NORAD_CAT_ID": 68384,
    "ELEMENT_SET_NO": 999,
    "REV_AT_EPOCH": 423,
    "BSTAR": 0.0014769435,
    "MEAN_MOTION_DOT": 0.00226818,
    "MEAN_MOTION_DDOT": 0
  },
  {
    "OBJECT_NAME": "STARLINK-37128",
    "OBJECT_ID": "2026-063F",
    "EPOCH": "2026-04-21T22:00:01.999584",
    "MEAN_MOTION": 15.75236141,
    "ECCENTRICITY": 8.739e-05,
    "INCLINATION": 97.2858,
    "RA_OF_ASC_NODE": 253.8677,
    "ARG_OF_PERICENTER": 121.8425,
    "MEAN_ANOMALY": 61.1132,
    "EPHEMERIS_TYPE": 0,
    "CLASSIFICATION_TYPE": "U",
    "NORAD_CAT_ID": 68385,
    "ELEMENT_SET_NO": 999,
    "REV_AT_EPOCH": 536,
    "BSTAR": -0.00036862064,
    "MEAN_MOTION_DOT": -0.00054867,
    "MEAN_MOTION_DDOT": 0
  },
  {
    "OBJECT_NAME": "STARLINK-37198",
    "OBJECT_ID": "2026-063G",
    "EPOCH": "2026-04-20T13:49:05.232864",
    "MEAN_MOTION": 15.75254158,
    "ECCENTRICITY": 0.00015685,
    "INCLINATION": 97.2862,
    "RA_OF_ASC_NODE": 252.3978,
    "ARG_OF_PERICENTER": 50.0933,
    "MEAN_ANOMALY": 310.0469,
    "EPHEMERIS_TYPE": 0,
    "CLASSIFICATION_TYPE": "U",
    "NORAD_CAT_ID": 68386,
    "ELEMENT_SET_NO": 999,
    "REV_AT_EPOCH": 423,
    "BSTAR": 0.0013800514,
    "MEAN_MOTION_DOT": 0.00211479,
    "MEAN_MOTION_DDOT": 0
  },
  {
    "OBJECT_NAME": "STARLINK-37223",
    "OBJECT_ID": "2026-063H",
    "EPOCH": "2026-04-21T22:00:01.999584",
    "MEAN_MOTION": 15.75217549,
    "ECCENTRICITY": 0.0001253,
    "INCLINATION": 97.2857,
    "RA_OF_ASC_NODE": 253.872,
    "ARG_OF_PERICENTER": 96.2521,
    "MEAN_ANOMALY": 98.7205,
    "EPHEMERIS_TYPE": 0,
    "CLASSIFICATION_TYPE": "U",
    "NORAD_CAT_ID": 68387,
    "ELEMENT_SET_NO": 999,
    "REV_AT_EPOCH": 541,
    "BSTAR": -0.00040026041,
    "MEAN_MOTION_DOT": -0.00059487,
    "MEAN_MOTION_DDOT": 0
  },
  {
    "OBJECT_NAME": "STARLINK-37203",
    "OBJECT_ID": "2026-063J",
    "EPOCH": "2026-04-19T20:22:39.732672",
    "MEAN_MOTION": 15.80940298,
    "ECCENTRICITY": 9.591e-05,
    "INCLINATION": 97.2841,
    "RA_OF_ASC_NODE": 251.7032,
    "ARG_OF_PERICENTER": 8.2437,
    "MEAN_ANOMALY": 351.8847,
    "EPHEMERIS_TYPE": 0,
    "CLASSIFICATION_TYPE": "U",
    "NORAD_CAT_ID": 68388,
    "ELEMENT_SET_NO": 999,
    "REV_AT_EPOCH": 412,
    "BSTAR": 0.0022117856,
    "MEAN_MOTION_DOT": 0.00448612,
    "MEAN_MOTION_DDOT": 0
  }
]