RASSVET-3 15
1 68374U 26061Q   26111.92663713  .00078601  97773-6  30231-3 0  9994
2 68374  82.2970  75.5918 0014931 321.2616  38.7583 15.87021766  4643
RASSVET-3 16
1 68375U 26061R   26111.85787761  .00064985  00000+0  32117-3 0  9992
2 68375  82.2967  75.8157 0015555 332.8501  27.1951 15.81652550  4626
SUPERVIEW NEO-2 OBJECT A
1 68377U 26062A   26111.39313701  .00002031  00000+0  98274-4 0  9994
2 68377  97.4408 119.5053 0002631  43.1102 317.0338 15.19714263  4022
SUPERVIEW NEO-2 OBJECT B
1 68378U 26062B   26110.99806870  .00002195  00000+0  10595-3 0  9994
2 68378  97.4395 119.1221 0001620  87.4083 272.7337 15.19724745  3961
STARLINK-36296
1 68380U 26063A   26110.56376086  .00162144  00000+0  10651-2 0  9995
2 68380  97.2865 252.5730 0001078  95.0668 265.0721 15.75241029  4247
STARLINK-37111
1 68381U 26063B   26110.37670222  .00135047  00000+0  89157-3 0  9994
2 68381  97.2862 252.2100 0000263  79.9755 280.1540 15.75202088  4201
STARLINK-36946
1 68382U 26063C   26110.54989794  .00254167  00000+0  12846-2 0  9996
2 68382  97.2846 252.4336 0000514  47.9158 312.2154 15.80896430  4235
STARLINK-37121
1 68383U 26063D   26110.57151396  .00083906  00000+0  55769-3 0  9992
2 68383  97.2871 252.4040 0001401  61.4389 298.7017 15.75198470  4238
STARLINK-37137
1 68384U 26063E   26110.59163637  .00226818  00000+0  14769-2 0  9991
2 68384  97.2853 252.3762 0002439  11.3253 348.8067 15.75260532  4236
STARLINK-37128
1 68385U 26063F   26111.91668981 -.00054867  00000+0 -36862-3 0  9995
2 68385  97.2858 253.8677 0000873 121.8425  61.1132 15.75236141  5363
STARLINK-37198
1 68386U 26063G   26110.57575501  .00211479  00000+0  13801-2 0  9991
2 68386  97.2862 252.3978 0001568  50.0933 310.0469 15.75254158  4238
STARLINK-37223
1 68387U 26063H   26111.91668981 -.00059487  00000+0 -40026-3 0  9997
2 68387  97.2857 253.8720 0001253  96.2521  98.7205 15.75217549  5412
STARLINK-37203
1 68388U 26063J   26109.84907098  .00448612  00000+0  22118-2 0  9993
2 68388  97.2841 251.7032 0000959   8.2437 351.8847 15.80940298  4122
CZ-2D R/B
1 68379U 26062C   26111.98405118  .00007810  00000+0  24952-3 0  9996
2 68379  97.4976 120.5642 0050246 326.1187  33.6847 15.31502958  4141
